SL-3 R/B                
1 13403U 82079B   26009.19544492  .00005066  00000+0  20639-3 0  9991
2 13403  81.1458 263.2914 0025803  10.2539 349.9214 15.23974755368631
SL-14 R/B               
1 13553U 82092B   26009.01883457  .00000524  00000+0  56148-4 0  9999
2 13553  82.5668 197.1983 0021360 136.2065 339.3435 14.86588103320062
SL-3 R/B                
1 13819U 83010B   26008.92866966  .00013472  00000+0  29015-3 0  9998
2 13819  81.1034  75.4106 0016186 253.0761 106.8708 15.44332698348718
SL-3 R/B                
1 14208U 83075B   26009.14079729  .00010773  00000+0  29882-3 0  9993
2 14208  97.6119  11.5573 0024541  83.4276 276.9760 15.36810326321006
COSMOS 1536             
1 14699U 84013A   26008.94656888  .00006103  00000+0  25787-3 0  9996
2 14699  82.5459 167.1751 0015415 129.7301 230.5296 15.22937857263525
SL-14 R/B               
1 14820U 84027B   26009.16553160  .00000505  00000+0  55000-4 0  9993
2 14820  82.5432 300.8388 0018248 165.6707 194.5031 14.85909855238792
SL-8 R/B                
1 15483U 85006B   26009.16867587  .00000271  00000+0  98507-4 0  9997
2 15483  74.0459  10.6663 0019695 298.0459 133.3156 14.37742214145479
SL-12 R/B(2)            
1 15772U 85042D   26008.61761427  .00000135  00000+0  82100-4 0  9994
2 15772  71.1065 214.6385 0036736 221.8905 194.7393 14.21960770105857
SL-14 R/B               
1 15945U 85069B   26009.16841171  .00000449  00000+0  47975-4 0  9990
2 15945  82.5264  80.9167 0019593  33.6938 326.5520 14.86360179163999
SL-16 R/B               
1 16182U 85097B   26009.11681359  .00000247  00000+0  14794-3 0  9998
2 16182  71.0030 265.9687 0008317 331.6705 140.2260 14.16590782 78797
SL-14 R/B               
1 16496U 86006B   26009.09334362  .00000677  00000+0  69033-4 0  9997
2 16496  82.5286 315.8150 0078204 109.8287 251.1382 14.86713988140358
COSMOS 1743             
1 16719U 86034A   26008.39459674  .00037178  00000+0  57245-3 0  9999
2 16719  82.5359 136.8716 0005204 149.8031 210.3524 15.54013608170870
