CCSDS_OMM_VERS = 2.0
CREATION_DATE  = 
ORIGINATOR     = 

OBJECT_NAME    = SL-3 R/B
OBJECT_ID      = 1982-079B
CENTER_NAME    = EARTH
REF_FRAME      = TEME
TIME_SYSTEM    = UTC
MEAN_ELEMENT_THEORY = SGP/SGP4

EPOCH          = 2026-01-09T04:41:26.441088
MEAN_MOTION    = 15.23974755
ECCENTRICITY   = .0025803
INCLINATION    = 81.1458
RA_OF_ASC_NODE = 263.2914
ARG_OF_PERICENTER = 10.2539
MEAN_ANOMALY   = 349.9214

EPHEMERIS_TYPE = 0
CLASSIFICATION_TYPE = U
NORAD_CAT_ID   = 13403
ELEMENT_SET_NO = 999
REV_AT_EPOCH   = 36863
BSTAR          = .20639E-3
MEAN_MOTION_DOT = .5066E-4
MEAN_MOTION_DDOT = 0

CCSDS_OMM_VERS = 2.0
CREATION_DATE  = 
ORIGINATOR     = 

OBJECT_NAME    = SL-14 R/B
OBJECT_ID      = 1982-092B
CENTER_NAME    = EARTH
REF_FRAME      = TEME
TIME_SYSTEM    = UTC
MEAN_ELEMENT_THEORY = SGP/SGP4

EPOCH          = 2026-01-09T00:27:07.306848
MEAN_MOTION    = 14.86588103
ECCENTRICITY   = .002136
INCLINATION    = 82.5668
RA_OF_ASC_NODE = 197.1983
ARG_OF_PERICENTER = 136.2065
MEAN_ANOMALY   = 339.3435

EPHEMERIS_TYPE = 0
CLASSIFICATION_TYPE = U
NORAD_CAT_ID   = 13553
ELEMENT_SET_NO = 999
REV_AT_EPOCH   = 32006
BSTAR          = .56148E-4
MEAN_MOTION_DOT = .524E-5
MEAN_MOTION_DDOT = 0

CCSDS_OMM_VERS = 2.0
CREATION_DATE  = 
ORIGINATOR     = 

OBJECT_NAME    = SL-3 R/B
OBJECT_ID      = 1983-010B
CENTER_NAME    = EARTH
REF_FRAME      = TEME
TIME_SYSTEM    = UTC
MEAN_ELEMENT_THEORY = SGP/SGP4

EPOCH          = 2026-01-08T22:17:17.058624
MEAN_MOTION    = 15.44332698
ECCENTRICITY   = .0016186
INCLINATION    = 81.1034
RA_OF_ASC_NODE = 75.4106
ARG_OF_PERICENTER = 253.0761
MEAN_ANOMALY   = 106.8708

EPHEMERIS_TYPE = 0
CLASSIFICATION_TYPE = U
NORAD_CAT_ID   = 13819
ELEMENT_SET_NO = 999
REV_AT_EPOCH   = 34871
BSTAR          = .29015E-3
MEAN_MOTION_DOT = .13472E-3
MEAN_MOTION_DDOT = 0

CCSDS_OMM_VERS = 2.0
CREATION_DATE  = 
ORIGINATOR     = 

OBJECT_NAME    = SL-3 R/B
OBJECT_ID      = 1983-075B
CENTER_NAME    = EARTH
REF_FRAME      = TEME
TIME_SYSTEM    = UTC
MEAN_ELEMENT_THEORY = SGP/SGP4

EPOCH          = 2026-01-09T03:22:44.885856
MEAN_MOTION    = 15.36810326
ECCENTRICITY   = .0024541
INCLINATION    = 97.6119
RA_OF_ASC_NODE = 11.5573
ARG_OF_PERICENTER = 83.4276
MEAN_ANOMALY   = 276.9760

EPHEMERIS_TYPE = 0
CLASSIFICATION_TYPE = U
NORAD_CAT_ID   = 14208
ELEMENT_SET_NO = 999
REV_AT_EPOCH   = 32100
BSTAR          = .29882E-3
MEAN_MOTION_DOT = .10773E-3
MEAN_MOTION_DDOT = 0

CCSDS_OMM_VERS = 2.0
CREATION_DATE  = 
ORIGINATOR     = 

OBJECT_NAME    = COSMOS 1536
OBJECT_ID      = 1984-013A
CENTER_NAME    = EARTH
REF_FRAME      = TEME
TIME_SYSTEM    = UTC
MEAN_ELEMENT_THEORY = SGP/SGP4

EPOCH          = 2026-01-08T22:43:03.551232
MEAN_MOTION    = 15.22937857
ECCENTRICITY   = .0015415
INCLINATION    = 82.5459
RA_OF_ASC_NODE = 167.1751
ARG_OF_PERICENTER = 129.7301
MEAN_ANOMALY   = 230.5296

EPHEMERIS_TYPE = 0
CLASSIFICATION_TYPE = U
NORAD_CAT_ID   = 14699
ELEMENT_SET_NO = 999
REV_AT_EPOCH   = 26352
BSTAR          = .25787E-3
MEAN_MOTION_DOT = .6103E-4
MEAN_MOTION_DDOT = 0

CCSDS_OMM_VERS = 2.0
CREATION_DATE  = 
ORIGINATOR     = 

OBJECT_NAME    = SL-14 R/B
OBJECT_ID      = 1984-027B
CENTER_NAME    = EARTH
REF_FRAME      = TEME
TIME_SYSTEM    = UTC
MEAN_ELEMENT_THEORY = SGP/SGP4

EPOCH          = 2026-01-09T03:58:21.930240
MEAN_MOTION    = 14.85909855
ECCENTRICITY   = .0018248
INCLINATION    = 82.5432
RA_OF_ASC_NODE = 300.8388
ARG_OF_PERICENTER = 165.6707
MEAN_ANOMALY   = 194.5031

EPHEMERIS_TYPE = 0
CLASSIFICATION_TYPE = U
NORAD_CAT_ID   = 14820
ELEMENT_SET_NO = 999
REV_AT_EPOCH   = 23879
BSTAR          = .55E-4
MEAN_MOTION_DOT = .505E-5
MEAN_MOTION_DDOT = 0

CCSDS_OMM_VERS = 2.0
CREATION_DATE  = 
ORIGINATOR     = 

OBJECT_NAME    = SL-8 R/B
OBJECT_ID      = 1985-006B
CENTER_NAME    = EARTH
REF_FRAME      = TEME
TIME_SYSTEM    = UTC
MEAN_ELEMENT_THEORY = SGP/SGP4

EPOCH          = 2026-01-09T04:02:53.595168
MEAN_MOTION    = 14.37742214
ECCENTRICITY   = .0019695
INCLINATION    = 74.0459
RA_OF_ASC_NODE = 10.6663
ARG_OF_PERICENTER = 298.0459
MEAN_ANOMALY   = 133.3156

EPHEMERIS_TYPE = 0
CLASSIFICATION_TYPE = U
NORAD_CAT_ID   = 15483
ELEMENT_SET_NO = 999
REV_AT_EPOCH   = 14547
BSTAR          = .98507E-4
MEAN_MOTION_DOT = .271E-5
MEAN_MOTION_DDOT = 0

CCSDS_OMM_VERS = 2.0
CREATION_DATE  = 
ORIGINATOR     = 

OBJECT_NAME    = SL-12 R/B(2)
OBJECT_ID      = 1985-042D
CENTER_NAME    = EARTH
REF_FRAME      = TEME
TIME_SYSTEM    = UTC
MEAN_ELEMENT_THEORY = SGP/SGP4

EPOCH          = 2026-01-08T14:49:21.872928
MEAN_MOTION    = 14.21960770
ECCENTRICITY   = .00367365
INCLINATION    = 71.1065
RA_OF_ASC_NODE = 214.6385
ARG_OF_PERICENTER = 221.8905
MEAN_ANOMALY   = 194.7393

EPHEMERIS_TYPE = 0
CLASSIFICATION_TYPE = U
NORAD_CAT_ID   = 15772
ELEMENT_SET_NO = 999
REV_AT_EPOCH   = 10585
BSTAR          = .82100135E-4
MEAN_MOTION_DOT = .135E-5
MEAN_MOTION_DDOT = 0

CCSDS_OMM_VERS = 2.0
CREATION_DATE  = 
ORIGINATOR     = 

OBJECT_NAME    = SL-14 R/B
OBJECT_ID      = 1985-069B
CENTER_NAME    = EARTH
REF_FRAME      = TEME
TIME_SYSTEM    = UTC
MEAN_ELEMENT_THEORY = SGP/SGP4

EPOCH          = 2026-01-09T04:02:30.771744
MEAN_MOTION    = 14.86360179
ECCENTRICITY   = .0019593
INCLINATION    = 82.5264
RA_OF_ASC_NODE = 80.9167
ARG_OF_PERICENTER = 33.6938
MEAN_ANOMALY   = 326.5520

EPHEMERIS_TYPE = 0
CLASSIFICATION_TYPE = U
NORAD_CAT_ID   = 15945
ELEMENT_SET_NO = 999
REV_AT_EPOCH   = 16399
BSTAR          = .47975E-4
MEAN_MOTION_DOT = .449E-5
MEAN_MOTION_DDOT = 0

CCSDS_OMM_VERS = 2.0
CREATION_DATE  = 
ORIGINATOR     = 

OBJECT_NAME    = SL-16 R/B
OBJECT_ID      = 1985-097B
CENTER_NAME    = EARTH
REF_FRAME      = TEME
TIME_SYSTEM    = UTC
MEAN_ELEMENT_THEORY = SGP/SGP4

EPOCH          = 2026-01-09T02:48:12.694176
MEAN_MOTION    = 14.16590782
ECCENTRICITY   = .0008317
INCLINATION    = 71.0030
RA_OF_ASC_NODE = 265.9687
ARG_OF_PERICENTER = 331.6705
MEAN_ANOMALY   = 140.2260

EPHEMERIS_TYPE = 0
CLASSIFICATION_TYPE = U
NORAD_CAT_ID   = 16182
ELEMENT_SET_NO = 999
REV_AT_EPOCH   = 7879
BSTAR          = .14794E-3
MEAN_MOTION_DOT = .247E-5
MEAN_MOTION_DDOT = 0

CCSDS_OMM_VERS = 2.0
CREATION_DATE  = 
ORIGINATOR     = 

OBJECT_NAME    = SL-14 R/B
OBJECT_ID      = 1986-006B
CENTER_NAME    = EARTH
REF_FRAME      = TEME
TIME_SYSTEM    = UTC
MEAN_ELEMENT_THEORY = SGP/SGP4

EPOCH          = 2026-01-09T02:14:24.888768
MEAN_MOTION    = 14.86713988
ECCENTRICITY   = .0078204
INCLINATION    = 82.5286
RA_OF_ASC_NODE = 315.8150
ARG_OF_PERICENTER = 109.8287
MEAN_ANOMALY   = 251.1382

EPHEMERIS_TYPE = 0
CLASSIFICATION_TYPE = U
NORAD_CAT_ID   = 16496
ELEMENT_SET_NO = 999
REV_AT_EPOCH   = 14035
BSTAR          = .69033E-4
MEAN_MOTION_DOT = .677E-5
MEAN_MOTION_DDOT = 0

CCSDS_OMM_VERS = 2.0
CREATION_DATE  = 
ORIGINATOR     = 

OBJECT_NAME    = COSMOS 1743
OBJECT_ID      = 1986-034A
CENTER_NAME    = EARTH
REF_FRAME      = TEME
TIME_SYSTEM    = UTC
MEAN_ELEMENT_THEORY = SGP/SGP4

EPOCH          = 2026-01-08T09:28:13.158336
MEAN_MOTION    = 15.54013608
ECCENTRICITY   = .00052041
INCLINATION    = 82.5359
RA_OF_ASC_NODE = 136.8716
ARG_OF_PERICENTER = 149.8031
MEAN_ANOMALY   = 210.3524

EPHEMERIS_TYPE = 0
CLASSIFICATION_TYPE = U
NORAD_CAT_ID   = 16719
ELEMENT_SET_NO = 999
REV_AT_EPOCH   = 17087
BSTAR          = .57245154E-3
MEAN_MOTION_DOT = .37178E-3
MEAN_MOTION_DDOT = 0

